CCSDS_OEM_VERS = 2.0
CREATION_DATE  = 2025-09-12T20:39:48.817
ORIGINATOR     = Python_HGV

META_START
OBJECT_NAME          = HGV_00006
OBJECT_ID            = 0000-000A
CENTER_NAME          = Earth
REF_FRAME            = ICRF
TIME_SYSTEM          = UTC
INTERPOLATION        = LAGRANGE
INTERPOLATION_DEGREE = 5
START_TIME           = 2025-07-22T00:00:00.000
STOP_TIME            = 2025-07-22T00:18:23.000
META_STOP

2025-07-22T00:00:00.000  2.667352e+03  4.672023e+03  3.622090e+03 -1.237163e+00 -2.271560e+00  3.823445e+00
2025-07-22T00:00:01.000  2.666115e+03  4.669752e+03  3.625913e+03 -1.239159e+00 -2.274675e+00  3.820957e+00
2025-07-22T00:00:02.000  2.664874e+03  4.667474e+03  3.629731e+03 -1.243148e+00 -2.280905e+00  3.815979e+00
2025-07-22T00:00:03.000  2.663629e+03  4.665190e+03  3.633545e+03 -1.247137e+00 -2.287131e+00  3.810996e+00
2025-07-22T00:00:04.000  2.662380e+03  4.662900e+03  3.637353e+03 -1.251125e+00 -2.293355e+00  3.806008e+00
2025-07-22T00:00:05.000  2.661127e+03  4.660603e+03  3.641157e+03 -1.255112e+00 -2.299576e+00  3.801015e+00
2025-07-22T00:00:06.000  2.659870e+03  4.658301e+03  3.644955e+03 -1.259097e+00 -2.305794e+00  3.796017e+00
2025-07-22T00:00:07.000  2.658608e+03  4.655992e+03  3.648749e+03 -1.263082e+00 -2.312010e+00  3.791014e+00
2025-07-22T00:00:08.000  2.657343e+03  4.653677e+03  3.652538e+03 -1.267066e+00 -2.318222e+00  3.786006e+00
2025-07-22T00:00:09.000  2.656074e+03  4.651355e+03  3.656321e+03 -1.271048e+00 -2.324432e+00  3.780993e+00
2025-07-22T00:00:10.000  2.654801e+03  4.649028e+03  3.660099e+03 -1.275030e+00 -2.330640e+00  3.775975e+00
2025-07-22T00:00:11.000  2.653524e+03  4.646694e+03  3.663873e+03 -1.279011e+00 -2.336845e+00  3.770952e+00
2025-07-22T00:00:12.000  2.652243e+03  4.644354e+03  3.667641e+03 -1.282990e+00 -2.343047e+00  3.765925e+00
2025-07-22T00:00:13.000  2.650958e+03  4.642008e+03  3.671405e+03 -1.286969e+00 -2.349246e+00  3.760892e+00
2025-07-22T00:00:14.000  2.649669e+03  4.639655e+03  3.675163e+03 -1.290946e+00 -2.355443e+00  3.755854e+00
2025-07-22T00:00:15.000  2.648376e+03  4.637297e+03  3.678917e+03 -1.294923e+00 -2.361637e+00  3.750811e+00
2025-07-22T00:00:16.000  2.647079e+03  4.634932e+03  3.682665e+03 -1.298899e+00 -2.367828e+00  3.745763e+00
2025-07-22T00:00:17.000  2.645779e+03  4.632561e+03  3.686408e+03 -1.302873e+00 -2.374017e+00  3.740710e+00
2025-07-22T00:00:18.000  2.644474e+03  4.630184e+03  3.690146e+03 -1.306847e+00 -2.380203e+00  3.735652e+00
2025-07-22T00:00:19.000  2.643165e+03  4.627801e+03  3.693879e+03 -1.310820e+00 -2.386387e+00  3.730589e+00
2025-07-22T00:00:20.000  2.641852e+03  4.625411e+03  3.697607e+03 -1.314792e+00 -2.392568e+00  3.725521e+00
2025-07-22T00:00:21.000  2.640535e+03  4.623016e+03  3.701330e+03 -1.318762e+00 -2.398746e+00  3.720448e+00
2025-07-22T00:00:22.000  2.639215e+03  4.620614e+03  3.705048e+03 -1.322732e+00 -2.404922e+00  3.715370e+00
2025-07-22T00:00:23.000  2.637890e+03  4.618206e+03  3.708761e+03 -1.326701e+00 -2.411095e+00  3.710286e+00
2025-07-22T00:00:24.000  2.636561e+03  4.615792e+03  3.712469e+03 -1.330669e+00 -2.417266e+00  3.705198e+00
2025-07-22T00:00:25.000  2.635229e+03  4.613371e+03  3.716172e+03 -1.334636e+00 -2.423434e+00  3.700104e+00
2025-07-22T00:00:26.000  2.633892e+03  4.610945e+03  3.719869e+03 -1.338602e+00 -2.429600e+00  3.695005e+00
2025-07-22T00:00:27.000  2.632551e+03  4.608512e+03  3.723562e+03 -1.342567e+00 -2.435762e+00  3.689902e+00
2025-07-22T00:00:28.000  2.631207e+03  4.606073e+03  3.727249e+03 -1.346531e+00 -2.441923e+00  3.684793e+00
2025-07-22T00:00:29.000  2.629858e+03  4.603628e+03  3.730931e+03 -1.350495e+00 -2.448081e+00  3.679678e+00
2025-07-22T00:00:30.000  2.628506e+03  4.601177e+03  3.734608e+03 -1.354457e+00 -2.454236e+00  3.674559e+00
2025-07-22T00:00:31.000  2.627149e+03  4.598720e+03  3.738280e+03 -1.358418e+00 -2.460389e+00  3.669435e+00
2025-07-22T00:00:32.000  2.625789e+03  4.596256e+03  3.741947e+03 -1.362379e+00 -2.466539e+00  3.664305e+00
2025-07-22T00:00:33.000  2.624425e+03  4.593787e+03  3.745609e+03 -1.366339e+00 -2.472687e+00  3.659170e+00
2025-07-22T00:00:34.000  2.623056e+03  4.591311e+03  3.749265e+03 -1.370297e+00 -2.478832e+00  3.654030e+00
2025-07-22T00:00:35.000  2.621684e+03  4.588829e+03  3.752917e+03 -1.374255e+00 -2.484975e+00  3.648885e+00
2025-07-22T00:00:36.000  2.620308e+03  4.586341e+03  3.756563e+03 -1.378212e+00 -2.491115e+00  3.643735e+00
2025-07-22T00:00:37.000  2.618928e+03  4.583847e+03  3.760204e+03 -1.382168e+00 -2.497253e+00  3.638579e+00
2025-07-22T00:00:38.000  2.617543e+03  4.581347e+03  3.763840e+03 -1.386123e+00 -2.503389e+00  3.633418e+00
2025-07-22T00:00:39.000  2.616155e+03  4.578840e+03  3.767471e+03 -1.390077e+00 -2.509521e+00  3.628252e+00
2025-07-22T00:00:40.000  2.614763e+03  4.576327e+03  3.771097e+03 -1.394031e+00 -2.515652e+00  3.623081e+00
2025-07-22T00:00:41.000  2.613367e+03  4.573809e+03  3.774717e+03 -1.397983e+00 -2.521780e+00  3.617904e+00
2025-07-22T00:00:42.000  2.611967e+03  4.571284e+03  3.778333e+03 -1.401935e+00 -2.527905e+00  3.612722e+00
2025-07-22T00:00:43.000  2.610563e+03  4.568753e+03  3.781943e+03 -1.405886e+00 -2.534029e+00  3.607535e+00
2025-07-22T00:00:44.000  2.609156e+03  4.566216e+03  3.785548e+03 -1.409835e+00 -2.540149e+00  3.602343e+00
2025-07-22T00:00:45.000  2.607744e+03  4.563673e+03  3.789148e+03 -1.413784e+00 -2.546268e+00  3.597145e+00
2025-07-22T00:00:46.000  2.606328e+03  4.561123e+03  3.792742e+03 -1.417733e+00 -2.552384e+00  3.591942e+00
2025-07-22T00:00:47.000  2.604908e+03  4.558568e+03  3.796331e+03 -1.421680e+00 -2.558497e+00  3.586734e+00
2025-07-22T00:00:48.000  2.603485e+03  4.556006e+03  3.799916e+03 -1.425626e+00 -2.564608e+00  3.581520e+00
2025-07-22T00:00:49.000  2.602057e+03  4.553439e+03  3.803494e+03 -1.429572e+00 -2.570717e+00  3.576301e+00
2025-07-22T00:00:50.000  2.600625e+03  4.550865e+03  3.807068e+03 -1.433517e+00 -2.576823e+00  3.571077e+00
2025-07-22T00:00:51.000  2.599190e+03  4.548285e+03  3.810637e+03 -1.437461e+00 -2.582927e+00  3.565847e+00
2025-07-22T00:00:52.000  2.597751e+03  4.545699e+03  3.814200e+03 -1.441404e+00 -2.589029e+00  3.560612e+00
2025-07-22T00:00:53.000  2.596307e+03  4.543107e+03  3.817758e+03 -1.445346e+00 -2.595128e+00  3.555371e+00
2025-07-22T00:00:54.000  2.594860e+03  4.540509e+03  3.821311e+03 -1.449288e+00 -2.601225e+00  3.550125e+00
2025-07-22T00:00:55.000  2.593409e+03  4.537905e+03  3.824858e+03 -1.453229e+00 -2.607320e+00  3.544874e+00
2025-07-22T00:00:56.000  2.591953e+03  4.535294e+03  3.828400e+03 -1.457168e+00 -2.613412e+00  3.539617e+00
2025-07-22T00:00:57.000  2.590494e+03  4.532678e+03  3.831937e+03 -1.461108e+00 -2.619502e+00  3.534355e+00
2025-07-22T00:00:58.000  2.589031e+03  4.530055e+03  3.835469e+03 -1.465046e+00 -2.625589e+00  3.529088e+00
2025-07-22T00:00:59.000  2.587564e+03  4.527427e+03  3.838995e+03 -1.468983e+00 -2.631675e+00  3.523815e+00
2025-07-22T00:01:00.000  2.586093e+03  4.524792e+03  3.842517e+03 -1.472920e+00 -2.637757e+00  3.518537e+00
2025-07-22T00:01:01.000  2.584618e+03  4.522151e+03  3.846033e+03 -1.476856e+00 -2.643838e+00  3.513253e+00
2025-07-22T00:01:02.000  2.583139e+03  4.519504e+03  3.849543e+03 -1.480791e+00 -2.649917e+00  3.507963e+00
2025-07-22T00:01:03.000  2.581657e+03  4.516851e+03  3.853048e+03 -1.484725e+00 -2.655993e+00  3.502669e+00
2025-07-22T00:01:04.000  2.580170e+03  4.514192e+03  3.856548e+03 -1.488659e+00 -2.662066e+00  3.497368e+00
2025-07-22T00:01:05.000  2.578679e+03  4.511527e+03  3.860043e+03 -1.492592e+00 -2.668138e+00  3.492063e+00
2025-07-22T00:01:06.000  2.577185e+03  4.508856e+03  3.863533e+03 -1.496524e+00 -2.674207e+00  3.486751e+00
2025-07-22T00:01:07.000  2.575686e+03  4.506179e+03  3.867017e+03 -1.500455e+00 -2.680274e+00  3.481435e+00
2025-07-22T00:01:08.000  2.574184e+03  4.503495e+03  3.870495e+03 -1.504385e+00 -2.686339e+00  3.476112e+00
2025-07-22T00:01:09.000  2.572678e+03  4.500806e+03  3.873969e+03 -1.508315e+00 -2.692402e+00  3.470784e+00
2025-07-22T00:01:10.000  2.571167e+03  4.498111e+03  3.877437e+03 -1.512244e+00 -2.698462e+00  3.465451e+00
2025-07-22T00:01:11.000  2.569653e+03  4.495409e+03  3.880900e+03 -1.516172e+00 -2.704520e+00  3.460112e+00
2025-07-22T00:01:12.000  2.568135e+03  4.492701e+03  3.884357e+03 -1.520100e+00 -2.710576e+00  3.454767e+00
2025-07-22T00:01:13.000  2.566613e+03  4.489988e+03  3.887809e+03 -1.524026e+00 -2.716629e+00  3.449417e+00
2025-07-22T00:01:14.000  2.565087e+03  4.487268e+03  3.891256e+03 -1.527952e+00 -2.722681e+00  3.444062e+00
2025-07-22T00:01:15.000  2.563557e+03  4.484543e+03  3.894697e+03 -1.531878e+00 -2.728730e+00  3.438700e+00
2025-07-22T00:01:16.000  2.562023e+03  4.481811e+03  3.898134e+03 -1.535802e+00 -2.734777e+00  3.433333e+00
2025-07-22T00:01:17.000  2.560485e+03  4.479073e+03  3.901564e+03 -1.539726e+00 -2.740822e+00  3.427961e+00
2025-07-22T00:01:18.000  2.558944e+03  4.476329e+03  3.904989e+03 -1.543649e+00 -2.746864e+00  3.422583e+00
2025-07-22T00:01:19.000  2.557398e+03  4.473579e+03  3.908409e+03 -1.547571e+00 -2.752905e+00  3.417199e+00
2025-07-22T00:01:20.000  2.555849e+03  4.470823e+03  3.911824e+03 -1.551493e+00 -2.758943e+00  3.411809e+00
2025-07-22T00:01:21.000  2.554295e+03  4.468061e+03  3.915233e+03 -1.555414e+00 -2.764979e+00  3.406414e+00
2025-07-22T00:01:22.000  2.552738e+03  4.465293e+03  3.918637e+03 -1.559334e+00 -2.771013e+00  3.401013e+00
2025-07-22T00:01:23.000  2.551176e+03  4.462519e+03  3.922035e+03 -1.563253e+00 -2.777045e+00  3.395607e+00
2025-07-22T00:01:24.000  2.549611e+03  4.459739e+03  3.925428e+03 -1.567172e+00 -2.783074e+00  3.390194e+00
2025-07-22T00:01:25.000  2.548042e+03  4.456953e+03  3.928815e+03 -1.571090e+00 -2.789102e+00  3.384777e+00
2025-07-22T00:01:26.000  2.546469e+03  4.454161e+03  3.932197e+03 -1.575007e+00 -2.795127e+00  3.379353e+00
2025-07-22T00:01:27.000  2.544892e+03  4.451363e+03  3.935574e+03 -1.578924e+00 -2.801150e+00  3.373924e+00
